CCSDS_OMM_VERS = 2.0
CREATION_DATE  = 
ORIGINATOR     = 

OBJECT_NAME    = AQUA
OBJECT_ID      = 2002-022A
CENTER_NAME    = EARTH
REF_FRAME      = TEME
TIME_SYSTEM    = UTC
MEAN_ELEMENT_THEORY = SGP/SGP4

EPOCH          = 2026-03-30T21:41:40.212960
MEAN_MOTION    = 14.62026074
ECCENTRICITY   = .00012181
INCLINATION    = 98.4210
RA_OF_ASC_NODE = 57.6611
ARG_OF_PERICENTER = 117.4888
MEAN_ANOMALY   = 319.5999

EPHEMERIS_TYPE = 0
CLASSIFICATION_TYPE = U
NORAD_CAT_ID   = 27424
ELEMENT_SET_NO = 999
REV_AT_EPOCH   = 27183
BSTAR          = .2683855E-3
MEAN_MOTION_DOT = .1297E-4
MEAN_MOTION_DDOT = 0

CCSDS_OMM_VERS = 2.0
CREATION_DATE  = 
ORIGINATOR     = 

OBJECT_NAME    = CZ-4B R/B
OBJECT_ID      = 2002-024C
CENTER_NAME    = EARTH
REF_FRAME      = TEME
TIME_SYSTEM    = UTC
MEAN_ELEMENT_THEORY = SGP/SGP4

EPOCH          = 2026-03-30T21:22:07.131648
MEAN_MOTION    = 14.14551407
ECCENTRICITY   = .0049431
INCLINATION    = 98.8793
RA_OF_ASC_NODE = 143.1860
ARG_OF_PERICENTER = 323.7664
MEAN_ANOMALY   = 209.8801

EPHEMERIS_TYPE = 0
CLASSIFICATION_TYPE = U
NORAD_CAT_ID   = 27432
ELEMENT_SET_NO = 999
REV_AT_EPOCH   = 23223
BSTAR          = .50973198E-4
MEAN_MOTION_DOT = .54E-6
MEAN_MOTION_DDOT = 0

CCSDS_OMM_VERS = 2.0
CREATION_DATE  = 
ORIGINATOR     = 

OBJECT_NAME    = MIDORI II (ADEOS-II)
OBJECT_ID      = 2002-056A
CENTER_NAME    = EARTH
REF_FRAME      = TEME
TIME_SYSTEM    = UTC
MEAN_ELEMENT_THEORY = SGP/SGP4

EPOCH          = 2026-03-30T21:00:01.516320
MEAN_MOTION    = 14.29301342
ECCENTRICITY   = .000063
INCLINATION    = 98.7805
RA_OF_ASC_NODE = 48.5039
ARG_OF_PERICENTER = 19.6954
MEAN_ANOMALY   = 340.4251

EPHEMERIS_TYPE = 0
CLASSIFICATION_TYPE = U
NORAD_CAT_ID   = 27597
ELEMENT_SET_NO = 999
REV_AT_EPOCH   = 21332
BSTAR          = .17489449E-3
MEAN_MOTION_DOT = .4E-5
MEAN_MOTION_DDOT = 0

CCSDS_OMM_VERS = 2.0
CREATION_DATE  = 
ORIGINATOR     = 

OBJECT_NAME    = H-2A R/B
OBJECT_ID      = 2002-056E
CENTER_NAME    = EARTH
REF_FRAME      = TEME
TIME_SYSTEM    = UTC
MEAN_ELEMENT_THEORY = SGP/SGP4

EPOCH          = 2026-03-30T22:06:09.940032
MEAN_MOTION    = 14.33775333
ECCENTRICITY   = .00713967
INCLINATION    = 98.3238
RA_OF_ASC_NODE = 49.4829
ARG_OF_PERICENTER = 98.1621
MEAN_ANOMALY   = 315.1998

EPHEMERIS_TYPE = 0
CLASSIFICATION_TYPE = U
NORAD_CAT_ID   = 27601
ELEMENT_SET_NO = 999
REV_AT_EPOCH   = 21715
BSTAR          = .15278207E-3
MEAN_MOTION_DOT = .396E-5
MEAN_MOTION_DDOT = 0

CCSDS_OMM_VERS = 2.0
CREATION_DATE  = 
ORIGINATOR     = 

OBJECT_NAME    = CZ-4B R/B
OBJECT_ID      = 2003-049C
CENTER_NAME    = EARTH
REF_FRAME      = TEME
TIME_SYSTEM    = UTC
MEAN_ELEMENT_THEORY = SGP/SGP4

EPOCH          = 2026-03-30T23:26:11.349600
MEAN_MOTION    = 14.55039582
ECCENTRICITY   = .00484087
INCLINATION    = 98.6893
RA_OF_ASC_NODE = 85.7196
ARG_OF_PERICENTER = 165.4310
MEAN_ANOMALY   = 194.8294

EPHEMERIS_TYPE = 0
CLASSIFICATION_TYPE = U
NORAD_CAT_ID   = 28059
ELEMENT_SET_NO = 999
REV_AT_EPOCH   = 18969
BSTAR          = .11978443E-3
MEAN_MOTION_DOT = .473E-5
MEAN_MOTION_DDOT = 0

CCSDS_OMM_VERS = 2.0
CREATION_DATE  = 
ORIGINATOR     = 

OBJECT_NAME    = CZ-2C R/B
OBJECT_ID      = 2004-012C
CENTER_NAME    = EARTH
REF_FRAME      = TEME
TIME_SYSTEM    = UTC
MEAN_ELEMENT_THEORY = SGP/SGP4

EPOCH          = 2026-03-30T18:18:19.365696
MEAN_MOTION    = 15.67144936
ECCENTRICITY   = .00133687
INCLINATION    = 97.7178
RA_OF_ASC_NODE = 157.0882
ARG_OF_PERICENTER = 225.9154
MEAN_ANOMALY   = 134.1006

EPHEMERIS_TYPE = 0
CLASSIFICATION_TYPE = U
NORAD_CAT_ID   = 28222
ELEMENT_SET_NO = 999
REV_AT_EPOCH   = 20757
BSTAR          = .7315566E-3
MEAN_MOTION_DOT = .78984E-3
MEAN_MOTION_DDOT = 0

CCSDS_OMM_VERS = 2.0
CREATION_DATE  = 
ORIGINATOR     = 

OBJECT_NAME    = SL-16 R/B
OBJECT_ID      = 2004-021B
CENTER_NAME    = EARTH
REF_FRAME      = TEME
TIME_SYSTEM    = UTC
MEAN_ELEMENT_THEORY = SGP/SGP4

EPOCH          = 2026-03-30T16:05:58.816032
MEAN_MOTION    = 14.14596113
ECCENTRICITY   = .00050851
INCLINATION    = 71.0010
RA_OF_ASC_NODE = 188.4630
ARG_OF_PERICENTER = 343.8866
MEAN_ANOMALY   = 16.2093

EPHEMERIS_TYPE = 0
CLASSIFICATION_TYPE = U
NORAD_CAT_ID   = 28353
ELEMENT_SET_NO = 999
REV_AT_EPOCH   = 12580
BSTAR          = .171913E-3
MEAN_MOTION_DOT = .283E-5
MEAN_MOTION_DDOT = 0

CCSDS_OMM_VERS = 2.0
CREATION_DATE  = 
ORIGINATOR     = 

OBJECT_NAME    = CZ-4B R/B
OBJECT_ID      = 2004-035C
CENTER_NAME    = EARTH
REF_FRAME      = TEME
TIME_SYSTEM    = UTC
MEAN_ELEMENT_THEORY = SGP/SGP4

EPOCH          = 2026-03-30T20:21:08.884800
MEAN_MOTION    = 15.29435164
ECCENTRICITY   = .00300843
INCLINATION    = 97.3464
RA_OF_ASC_NODE = 123.8382
ARG_OF_PERICENTER = 252.3090
MEAN_ANOMALY   = 107.4866

EPHEMERIS_TYPE = 0
CLASSIFICATION_TYPE = U
NORAD_CAT_ID   = 28415
ELEMENT_SET_NO = 999
REV_AT_EPOCH   = 18314
BSTAR          = .39387385E-3
MEAN_MOTION_DOT = .11323E-3
MEAN_MOTION_DDOT = 0

CCSDS_OMM_VERS = 2.0
CREATION_DATE  = 
ORIGINATOR     = 

OBJECT_NAME    = CZ-2C R/B
OBJECT_ID      = 2004-046B
CENTER_NAME    = EARTH
REF_FRAME      = TEME
TIME_SYSTEM    = UTC
MEAN_ELEMENT_THEORY = SGP/SGP4

EPOCH          = 2026-03-30T17:33:13.347072
MEAN_MOTION    = 14.26999934
ECCENTRICITY   = .01405951
INCLINATION    = 98.1978
RA_OF_ASC_NODE = 3.4044
ARG_OF_PERICENTER = 92.6278
MEAN_ANOMALY   = 269.1007

EPHEMERIS_TYPE = 0
CLASSIFICATION_TYPE = U
NORAD_CAT_ID   = 28480
ELEMENT_SET_NO = 999
REV_AT_EPOCH   = 11150
BSTAR          = .90383031E-4
MEAN_MOTION_DOT = .204E-5
MEAN_MOTION_DDOT = 0

CCSDS_OMM_VERS = 2.0
CREATION_DATE  = 
ORIGINATOR     = 

OBJECT_NAME    = ARIANE 5 R/B
OBJECT_ID      = 2004-049H
CENTER_NAME    = EARTH
REF_FRAME      = TEME
TIME_SYSTEM    = UTC
MEAN_ELEMENT_THEORY = SGP/SGP4

EPOCH          = 2026-03-30T10:46:53.258592
MEAN_MOTION    = 14.85304215
ECCENTRICITY   = .00829069
INCLINATION    = 98.2658
RA_OF_ASC_NODE = 258.6880
ARG_OF_PERICENTER = 284.0047
MEAN_ANOMALY   = 75.1959

EPHEMERIS_TYPE = 0
CLASSIFICATION_TYPE = U
NORAD_CAT_ID   = 28499
ELEMENT_SET_NO = 999
REV_AT_EPOCH   = 14887
BSTAR          = .12805242E-3
MEAN_MOTION_DOT = .1104E-4
MEAN_MOTION_DDOT = 0

CCSDS_OMM_VERS = 2.0
CREATION_DATE  = 
ORIGINATOR     = 

OBJECT_NAME    = CZ-2D R/B
OBJECT_ID      = 2005-024B
CENTER_NAME    = EARTH
REF_FRAME      = TEME
TIME_SYSTEM    = UTC
MEAN_ELEMENT_THEORY = SGP/SGP4

EPOCH          = 2026-03-30T14:32:38.152896
MEAN_MOTION    = 15.62092056
ECCENTRICITY   = .00021438
INCLINATION    = 97.3574
RA_OF_ASC_NODE = 105.5475
ARG_OF_PERICENTER = 323.4746
MEAN_ANOMALY   = 36.6366

EPHEMERIS_TYPE = 0
CLASSIFICATION_TYPE = U
NORAD_CAT_ID   = 28738
ELEMENT_SET_NO = 999
REV_AT_EPOCH   = 14304
BSTAR          = .63511518E-3
MEAN_MOTION_DOT = .55754E-3
MEAN_MOTION_DDOT = 0

CCSDS_OMM_VERS = 2.0
CREATION_DATE  = 
ORIGINATOR     = 

OBJECT_NAME    = ALOS (DAICHI)
OBJECT_ID      = 2006-002A
CENTER_NAME    = EARTH
REF_FRAME      = TEME
TIME_SYSTEM    = UTC
MEAN_ELEMENT_THEORY = SGP/SGP4

EPOCH          = 2026-03-30T21:05:10.120704
MEAN_MOTION    = 14.69875825
ECCENTRICITY   = .00009324
INCLINATION    = 98.1251
RA_OF_ASC_NODE = 45.7334
ARG_OF_PERICENTER = 110.5692
MEAN_ANOMALY   = 249.5614

EPHEMERIS_TYPE = 0
CLASSIFICATION_TYPE = U
NORAD_CAT_ID   = 28931
ELEMENT_SET_NO = 999
REV_AT_EPOCH   = 7659
BSTAR          = .30474091E-3
MEAN_MOTION_DOT = .1773E-4
MEAN_MOTION_DDOT = 0

