AQUA                    
1 27424U 02022A   26089.90393765  .00001297  00000+0  26839-3 0  9991
2 27424  98.4210  57.6611 0001218 117.4888 319.5999 14.62026074271838
CZ-4B R/B               
1 27432U 02024C   26089.89036032  .00000054  00000+0  50973-4 0  9998
2 27432  98.8793 143.1860 0049431 323.7664 209.8801 14.14551407232231
MIDORI II (ADEOS-II)    
1 27597U 02056A   26089.87501755  .00000400  00000+0  17489-3 0  9991
2 27597  98.7805  48.5039 0000630  19.6954 340.4251 14.29301342213320
H-2A R/B                
1 27601U 02056E   26089.92094838  .00000396  00000+0  15278-3 0  9990
2 27601  98.3238  49.4829 0071396  98.1621 315.1998 14.33775333217151
CZ-4B R/B               
1 28059U 03049C   26089.97652025  .00000473  00000+0  11978-3 0  9993
2 28059  98.6893  85.7196 0048408 165.4310 194.8294 14.55039582189691
CZ-2C R/B               
1 28222U 04012C   26089.76272414  .00078984  00000+0  73156-3 0  9991
2 28222  97.7178 157.0882 0013368 225.9154 134.1006 15.67144936207579
SL-16 R/B               
1 28353U 04021B   26089.67081963  .00000283  00000+0  17191-3 0  9997
2 28353  71.0010 188.4630 0005085 343.8866  16.2093 14.14596113125800
CZ-4B R/B               
1 28415U 04035C   26089.84801950  .00011323  00000+0  39387-3 0  9994
2 28415  97.3464 123.8382 0030084 252.3090 107.4866 15.29435164183147
CZ-2C R/B               
1 28480U 04046B   26089.73140448  .00000204  00000+0  90383-4 0  9994
2 28480  98.1978   3.4044 0140595  92.6278 269.1007 14.26999934111508
ARIANE 5 R/B            
1 28499U 04049H   26089.44922753  .00001104  00000+0  12805-3 0  9994
2 28499  98.2658 258.6880 0082906 284.0047  75.1959 14.85304215148876
CZ-2D R/B               
1 28738U 05024B   26089.60599714  .00055754  00000+0  63512-3 0  9990
2 28738  97.3574 105.5475 0002143 323.4746  36.6366 15.62092056143049
ALOS (DAICHI)           
1 28931U 06002A   26089.87858936  .00001773  00000+0  30474-3 0  9998
2 28931  98.1251  45.7334 0000932 110.5692 249.5614 14.69875825 76598
